HAWK-A                  
1 43765U 18099H   26068.67628545  .00008617  00000+0  36104-3 0  9995
2 43765  97.4051 122.2425 0034260 275.5523  84.1807 15.23231043397949
STARLINK-32200          
1 60258U 24131D   26068.35310926 -.00000552  00000+0 -65042-5 0  9998
2 60258  53.1613  54.2398 0001406  84.0345 276.0816 15.30190327 91661
